[{"OBJECT_NAME":"DONGPO 10","OBJECT_ID":"2022-167H","EPOCH":"2026-03-09T22:44:56.137344","MEAN_MOTION":15.322785,"ECCENTRICITY":0.00061655,"INCLINATION":97.685,"RA_OF_ASC_NODE":235.0962,"ARG_OF_PERICENTER":106.9526,"MEAN_ANOMALY":253.2392,"EPHEMERIS_TYPE":0,"CLASSIFICATION_TYPE":"U","NORAD_CAT_ID":54689,"ELEMENT_SET_NO":999,"REV_AT_EPOCH":18015,"BSTAR":0.00049390523,"MEAN_MOTION_DOT":0.00015333,"MEAN_MOTION_DDOT":0},{"OBJECT_NAME":"STARLINK-35534","OBJECT_ID":"2025-243AB","EPOCH":"2026-03-09T18:01:52.919616","MEAN_MOTION":15.30197677,"ECCENTRICITY":8.266e-5,"INCLINATION":53.1599,"RA_OF_ASC_NODE":244.9327,"ARG_OF_PERICENTER":53.007,"MEAN_ANOMALY":307.1007,"EPHEMERIS_TYPE":0,"CLASSIFICATION_TYPE":"U","NORAD_CAT_ID":66202,"ELEMENT_SET_NO":999,"REV_AT_EPOCH":2066,"BSTAR":0.00092720001,"MEAN_MOTION_DOT":0.000272,"MEAN_MOTION_DDOT":0}]
